NUSAT-50 (NANCY ROMAN)  
1 60493U 24149AB  26068.80227738  .00012094  00000+0  42252-3 0  9994
2 60493  97.3817 150.7693 0002523 238.0469 122.0527 15.29713355 86930
STARLINK-35264          
1 65900U 25224U   26068.26540740  .00039593  00000+0  13421-2 0  9996
2 65900  53.1603  13.0061 0001243  64.3975 295.7154 15.30192029 24804
